[{"OBJECT_NAME":"FREGAT R/B","OBJECT_ID":"2026-071B","EPOCH":"2026-04-03T07:42:42.175872","MEAN_MOTION":2.01041412,"ECCENTRICITY":0.73138199,"INCLINATION":63.0589,"RA_OF_ASC_NODE":237.9448,"ARG_OF_PERICENTER":284.9724,"MEAN_ANOMALY":10.3188,"EPHEMERIS_TYPE":0,"CLASSIFICATION_TYPE":"U","NORAD_CAT_ID":68572,"ELEMENT_SET_NO":999,"REV_AT_EPOCH":1,"BSTAR":0.00035051942,"MEAN_MOTION_DOT":-1.541e-5,"MEAN_MOTION_DDOT":0},{"OBJECT_NAME":"KUIPER-00131","OBJECT_ID":"2026-072A","EPOCH":"2026-04-09T12:06:07.929216","MEAN_MOTION":15.37035521,"ECCENTRICITY":0.0006957,"INCLINATION":51.8689,"RA_OF_ASC_NODE":149.099,"ARG_OF_PERICENTER":121.8629,"MEAN_ANOMALY":238.3035,"EPHEMERIS_TYPE":0,"CLASSIFICATION_TYPE":"U","NORAD_CAT_ID":68573,"ELEMENT_SET_NO":999,"REV_AT_EPOCH":81,"BSTAR":0.00052551,"MEAN_MOTION_DOT":0.00019009,"MEAN_MOTION_DDOT":0},{"OBJECT_NAME":"KUIPER-00189","OBJECT_ID":"2026-072B","EPOCH":"2026-04-09T13:32:07.070208","MEAN_MOTION":15.38574479,"ECCENTRICITY":0.0001311,"INCLINATION":51.8751,"RA_OF_ASC_NODE":148.7401,"ARG_OF_PERICENTER":67.1995,"MEAN_ANOMALY":292.9131,"EPHEMERIS_TYPE":0,"CLASSIFICATION_TYPE":"U","NORAD_CAT_ID":68574,"ELEMENT_SET_NO":999,"REV_AT_EPOCH":82,"BSTAR":0.00058889,"MEAN_MOTION_DOT":0.00022455,"MEAN_MOTION_DDOT":0},{"OBJECT_NAME":"KUIPER-00192","OBJECT_ID":"2026-072C","EPOCH":"2026-04-09T12:03:50.930784","MEAN_MOTION":15.37501946,"ECCENTRICITY":0.0005239,"INCLINATION":51.874,"RA_OF_ASC_NODE":149.0824,"ARG_OF_PERICENTER":113.2812,"MEAN_ANOMALY":246.8727,"EPHEMERIS_TYPE":0,"CLASSIFICATION_TYPE":"U","NORAD_CAT_ID":68575,"ELEMENT_SET_NO":999,"REV_AT_EPOCH":81,"BSTAR":0.00055633,"MEAN_MOTION_DOT":0.00020456,"MEAN_MOTION_DDOT":0},{"OBJECT_NAME":"KUIPER-00193","OBJECT_ID":"2026-072D","EPOCH":"2026-04-09T12:02:11.013504","MEAN_MOTION":15.3753461,"ECCENTRICITY":0.00034792,"INCLINATION":51.8743,"RA_OF_ASC_NODE":149.074,"ARG_OF_PERICENTER":101.498,"MEAN_ANOMALY":258.6397,"EPHEMERIS_TYPE":0,"CLASSIFICATION_TYPE":"U","NORAD_CAT_ID":68576,"ELEMENT_SET_NO":999,"REV_AT_EPOCH":81,"BSTAR":0.00047799035,"MEAN_MOTION_DOT":0.00017529,"MEAN_MOTION_DDOT":0},{"OBJECT_NAME":"KUIPER-00194","OBJECT_ID":"2026-072E","EPOCH":"2026-04-09T12:00:55.100736","MEAN_MOTION":15.38100792,"ECCENTRICITY":0.00030511,"INCLINATION":51.8755,"RA_OF_ASC_NODE":149.0649,"ARG_OF_PERICENTER":96.945,"MEAN_ANOMALY":263.1885,"EPHEMERIS_TYPE":0,"CLASSIFICATION_TYPE":"U","NORAD_CAT_ID":68577,"ELEMENT_SET_NO":999,"REV_AT_EPOCH":81,"BSTAR":0.00062245662,"MEAN_MOTION_DOT":0.00023394,"MEAN_MOTION_DDOT":0},{"OBJECT_NAME":"KUIPER-00229","OBJECT_ID":"2026-072F","EPOCH":"2026-04-09T12:06:36.563904","MEAN_MOTION":15.36887847,"ECCENTRICITY":0.00077505,"INCLINATION":51.8698,"RA_OF_ASC_NODE":149.1008,"ARG_OF_PERICENTER":119.7287,"MEAN_ANOMALY":240.4471,"EPHEMERIS_TYPE":0,"CLASSIFICATION_TYPE":"U","NORAD_CAT_ID":68578,"ELEMENT_SET_NO":999,"REV_AT_EPOCH":81,"BSTAR":0.00023227948,"MEAN_MOTION_DOT":8.131e-5,"MEAN_MOTION_DDOT":0},{"OBJECT_NAME":"KUIPER-00230","OBJECT_ID":"2026-072G","EPOCH":"2026-04-09T10:25:19.901568","MEAN_MOTION":15.38558398,"ECCENTRICITY":0.0001763,"INCLINATION":51.8754,"RA_OF_ASC_NODE":149.3662,"ARG_OF_PERICENTER":91.2354,"MEAN_ANOMALY":268.8835,"EPHEMERIS_TYPE":0,"CLASSIFICATION_TYPE":"U","NORAD_CAT_ID":68579,"ELEMENT_SET_NO":999,"REV_AT_EPOCH":80,"BSTAR":0.0005634,"MEAN_MOTION_DOT":0.00021452,"MEAN_MOTION_DDOT":0},{"OBJECT_NAME":"KUIPER-00231","OBJECT_ID":"2026-072H","EPOCH":"2026-04-09T12:01:13.854720","MEAN_MOTION":15.37990269,"ECCENTRICITY":0.00029722,"INCLINATION":51.8735,"RA_OF_ASC_NODE":149.071,"ARG_OF_PERICENTER":106.514,"MEAN_ANOMALY":253.6174,"EPHEMERIS_TYPE":0,"CLASSIFICATION_TYPE":"U","NORAD_CAT_ID":68580,"ELEMENT_SET_NO":999,"REV_AT_EPOCH":81,"BSTAR":0.00049329324,"MEAN_MOTION_DOT":0.00018378,"MEAN_MOTION_DDOT":0},{"OBJECT_NAME":"KUIPER-00234","OBJECT_ID":"2026-072J","EPOCH":"2026-04-09T12:00:01.645056","MEAN_MOTION":15.38279753,"ECCENTRICITY":0.0002315,"INCLINATION":51.8748,"RA_OF_ASC_NODE":149.0639,"ARG_OF_PERICENTER":89.0364,"MEAN_ANOMALY":271.0888,"EPHEMERIS_TYPE":0,"CLASSIFICATION_TYPE":"U","NORAD_CAT_ID":68581,"ELEMENT_SET_NO":999,"REV_AT_EPOCH":81,"BSTAR":0.00052514,"MEAN_MOTION_DOT":0.00019781,"MEAN_MOTION_DDOT":0},{"OBJECT_NAME":"KUIPER-00236","OBJECT_ID":"2026-072K","EPOCH":"2026-04-09T12:00:03.991680","MEAN_MOTION":15.38186598,"ECCENTRICITY":0.00027991,"INCLINATION":51.8751,"RA_OF_ASC_NODE":149.0621,"ARG_OF_PERICENTER":92.9673,"MEAN_ANOMALY":267.1635,"EPHEMERIS_TYPE":0,"CLASSIFICATION_TYPE":"U","NORAD_CAT_ID":68582,"ELEMENT_SET_NO":999,"REV_AT_EPOCH":81,"BSTAR":0.00053960061,"MEAN_MOTION_DOT":0.00020276,"MEAN_MOTION_DDOT":0},{"OBJECT_NAME":"KUIPER-00244","OBJECT_ID":"2026-072L","EPOCH":"2026-04-09T12:02:15.763776","MEAN_MOTION":15.37801038,"ECCENTRICITY":0.00040638,"INCLINATION":51.8746,"RA_OF_ASC_NODE":149.0725,"ARG_OF_PERICENTER":111.4311,"MEAN_ANOMALY":248.711,"EPHEMERIS_TYPE":0,"CLASSIFICATION_TYPE":"U","NORAD_CAT_ID":68583,"ELEMENT_SET_NO":999,"REV_AT_EPOCH":81,"BSTAR":0.00050979775,"MEAN_MOTION_DOT":0.00018891,"MEAN_MOTION_DDOT":0},{"OBJECT_NAME":"KUIPER-00253","OBJECT_ID":"2026-072M","EPOCH":"2026-04-09T12:04:19.634592","MEAN_MOTION":15.37378144,"ECCENTRICITY":0.00057967,"INCLINATION":51.8708,"RA_OF_ASC_NODE":149.0898,"ARG_OF_PERICENTER":119.9832,"MEAN_ANOMALY":240.1731,"EPHEMERIS_TYPE":0,"CLASSIFICATION_TYPE":"U","NORAD_CAT_ID":68584,"ELEMENT_SET_NO":999,"REV_AT_EPOCH":81,"BSTAR":0.00053838799,"MEAN_MOTION_DOT":0.00019703,"MEAN_MOTION_DDOT":0},{"OBJECT_NAME":"KUIPER-00254","OBJECT_ID":"2026-072N","EPOCH":"2026-04-09T12:07:01.527456","MEAN_MOTION":15.36854703,"ECCENTRICITY":0.0007632,"INCLINATION":51.8713,"RA_OF_ASC_NODE":149.1007,"ARG_OF_PERICENTER":125.1432,"MEAN_ANOMALY":235.0271,"EPHEMERIS_TYPE":0,"CLASSIFICATION_TYPE":"U","NORAD_CAT_ID":68585,"ELEMENT_SET_NO":999,"REV_AT_EPOCH":81,"BSTAR":0.00043827,"MEAN_MOTION_DOT":0.0001569,"MEAN_MOTION_DDOT":0},{"OBJECT_NAME":"KUIPER-00263","OBJECT_ID":"2026-072P","EPOCH":"2026-04-09T11:59:01.135680","MEAN_MOTION":15.38487416,"ECCENTRICITY":0.00020678,"INCLINATION":51.8756,"RA_OF_ASC_NODE":149.0548,"ARG_OF_PERICENTER":62.5917,"MEAN_ANOMALY":297.528,"EPHEMERIS_TYPE":0,"CLASSIFICATION_TYPE":"U","NORAD_CAT_ID":68586,"ELEMENT_SET_NO":999,"REV_AT_EPOCH":81,"BSTAR":0.00048540984,"MEAN_MOTION_DOT":0.00018377,"MEAN_MOTION_DDOT":0},{"OBJECT_NAME":"KUIPER-00269","OBJECT_ID":"2026-072Q","EPOCH":"2026-04-09T12:03:00.877536","MEAN_MOTION":15.37536743,"ECCENTRICITY":0.00047195,"INCLINATION":51.8732,"RA_OF_ASC_NODE":149.08,"ARG_OF_PERICENTER":103.3397,"MEAN_ANOMALY":256.8116,"EPHEMERIS_TYPE":0,"CLASSIFICATION_TYPE":"U","NORAD_CAT_ID":68587,"ELEMENT_SET_NO":999,"REV_AT_EPOCH":81,"BSTAR":2.7693066e-5,"MEAN_MOTION_DOT":6.42e-6,"MEAN_MOTION_DDOT":0},{"OBJECT_NAME":"KUIPER-00272","OBJECT_ID":"2026-072R","EPOCH":"2026-04-09T12:04:40.129536","MEAN_MOTION":15.37292994,"ECCENTRICITY":0.00060124,"INCLINATION":51.8717,"RA_OF_ASC_NODE":149.0902,"ARG_OF_PERICENTER":116.9423,"MEAN_ANOMALY":243.2179,"EPHEMERIS_TYPE":0,"CLASSIFICATION_TYPE":"U","NORAD_CAT_ID":68588,"ELEMENT_SET_NO":999,"REV_AT_EPOCH":81,"BSTAR":0.00063053898,"MEAN_MOTION_DOT":0.00023089,"MEAN_MOTION_DDOT":0}]
